NORAD_CAT_ID,OBJECT_NAME,OBJECT_TYPE,EPOCH,MEAN_MOTION,ECCENTRICITY,INCLINATION,RA_OF_ASC_NODE,ARG_OF_PERICENTER,MEAN_ANOMALY,BSTAR,MEAN_MOTION_DOT,MEAN_MOTION_DDOT,TLE_LINE0,TLE_LINE1,TLE_LINE2,SEMIMAJOR_AXIS,PERIOD,APOGEE,PERIGEE,DECAYED
50203.0,STARLINK-3257,PAYLOAD,2024-03-09 22:09:09,15.08834222,0.0001297,53.2152,275.2545,74.828,285.2855,-0.00010778,-2.003e-05,0.0,0 STARLINK-3257,1 50203U 21125AZ  24069.92302151 -.00002003  00000-0 -10778-3 0  9998,2 50203  53.2152 275.2545 0001297  74.8280 285.2855 15.08834222126625,6917.898,95.438,540.66,538.866,0.0
50203.0,STARLINK-3257,PAYLOAD,2024-03-10 14:03:00,15.08840964,0.0001401,53.2158,272.2804,75.9164,284.1984,-4.8257e-05,-1.056e-05,0.0,0 STARLINK-3257,1 50203U 21125AZ  24070.58542139 -.00001056  00000-0 -48257-4 0  9995,2 50203  53.2158 272.2804 0001401  75.9164 284.1984 15.08840964126728,6917.877,95.437,540.712,538.773,0.0
50203.0,STARLINK-3257,PAYLOAD,2024-03-10 18:49:09,15.08846473,0.0001168,53.2146,271.3889,72.0917,288.0202,-2.2755e-05,-6.5e-06,0.0,0 STARLINK-3257,1 50203U 21125AZ  24070.78413908 -.00000650  00000-0 -22755-4 0  9992,2 50203  53.2146 271.3889 0001168  72.0917 288.0202 15.08846473123614,6917.861,95.437,540.534,538.918,0.0
50203.0,STARLINK-3257,PAYLOAD,2024-03-11 13:53:48,15.08833638,0.0001364,53.2148,267.8215,76.0835,284.0308,0.00012788,1.748e-05,0.0,0 STARLINK-3257,1 50203U 21125AZ  24071.57902822  .00001748  00000-0  12788-3 0  9999,2 50203  53.2148 267.8215 0001364  76.0835 284.0308 15.08833638123735,6917.9,95.438,540.708,538.821,0.0
50203.0,STARLINK-3257,PAYLOAD,2024-03-11 20:15:20,15.08838151,0.0001575,53.2162,266.6333,83.3122,276.8049,0.0001741,2.484e-05,0.0,0 STARLINK-3257,1 50203U 21125AZ  24071.84398730  .00002484  00000-0  17410-3 0  9991,2 50203  53.2162 266.6333 0001575  83.3122 276.8049 15.08838151126912,6917.886,95.438,540.841,538.661,0.0
50203.0,STARLINK-3257,PAYLOAD,2024-03-13 05:38:26,15.08836831,0.0002501,53.2145,260.3845,81.8461,278.2815,7.9459e-05,9.76e-06,0.0,0 STARLINK-3257,1 50203U 21125AZ  24073.23503241  .00000976  00000-0  79459-4 0  9997,2 50203  53.2145 260.3845 0002501  81.8461 278.2815 15.08836831123985,6917.89,95.438,541.485,538.025,0.0
50203.0,STARLINK-3257,PAYLOAD,2024-03-13 11:59:59,15.08841236,0.0001768,53.2112,259.1955,83.6538,276.4656,0.00020699,3.008e-05,0.0,0 STARLINK-3257,1 50203U 21125AZ  24073.49998963  .00003008  00000-0  20699-3 0  9994,2 50203  53.2112 259.1955 0001768  83.6538 276.4656 15.08841236127168,6917.877,95.437,540.965,538.519,0.0
50203.0,STARLINK-3257,PAYLOAD,2024-03-14 05:29:13,15.08839224,0.0001529,53.2153,255.927,82.8929,277.2237,0.00011844,1.597e-05,0.0,0 STARLINK-3257,1 50203U 21125AZ  24074.22863124  .00001597  00000-0  11844-3 0  9999,2 50203  53.2153 255.9270 0001529  82.8929 277.2237 15.08839224127277,6917.883,95.438,540.806,538.69,0.0
50203.0,STARLINK-3257,PAYLOAD,2024-03-14 11:50:46,15.08841553,0.0001391,53.2148,254.7375,82.8359,277.2791,0.00012037,1.628e-05,0.0,0 STARLINK-3257,1 50203U 21125AZ  24074.49359048  .00001628  00000-0  12037-3 0  9993,2 50203  53.2148 254.7375 0001391  82.8359 277.2791 15.08841553124177,6917.876,95.437,540.703,538.778,0.0
50203.0,STARLINK-3257,PAYLOAD,2024-03-14 21:23:04,15.08848509,0.0001319,53.215,252.9516,88.6121,271.5023,0.00027758,4.134e-05,0.0,0 STARLINK-3257,1 50203U 21125AZ  24074.89102671  .00004134  00000-0  27758-3 0  9996,2 50203  53.2150 252.9516 0001319  88.6121 271.5023 15.08848509127376,6917.854,95.437,540.632,538.807,0.0
50203.0,STARLINK-3257,PAYLOAD,2024-03-15 21:13:51,15.08842339,0.0001278,53.2162,248.49,112.7482,247.3646,8.2392e-05,1.024e-05,0.0,0 STARLINK-3257,1 50203U 21125AZ  24075.88462832  .00001024  00000-0  82392-4 0  9995,2 50203  53.2162 248.4900 0001278 112.7482 247.3646 15.08842339127523,6917.873,95.437,540.622,538.854,0.0
50203.0,STARLINK-3257,PAYLOAD,2024-03-16 14:43:06,15.08832442,0.0001343,53.2161,245.2191,108.8927,251.221,0.00030011,4.491e-05,0.0,0 STARLINK-3257,1 50203U 21125AZ  24076.61327470  .00004491  00000-0  30011-3 0  9996,2 50203  53.2161 245.2191 0001343 108.8927 251.2210 15.08832442127639,6917.903,95.438,540.698,538.839,0.0
50203.0,STARLINK-3257,PAYLOAD,2024-03-16 21:04:39,15.08819558,0.0001412,53.2174,244.0267,105.5549,254.5599,0.00045666,6.983e-05,0.0,0 STARLINK-3257,1 50203U 21125AZ  24076.87823789  .00006983  00000-0  45666-3 0  9998,2 50203  53.2174 244.0267 0001412 105.5549 254.5599 15.08819558124530,6917.943,95.439,540.785,538.831,0.0
50203.0,STARLINK-3257,PAYLOAD,2024-03-17 14:33:54,15.08831857,0.0001746,53.2165,240.7525,109.2043,250.9138,2.4468e-05,1.01e-06,0.0,0 STARLINK-3257,1 50203U 21125AZ  24077.60687999  .00000101  00000-0  24468-4 0  9995,2 50203  53.2165 240.7525 0001746 109.2043 250.9138 15.08831857127785,6917.905,95.438,540.978,538.562,0.0
50203.0,STARLINK-3257,PAYLOAD,2024-03-17 17:44:40,15.08831837,0.0001497,53.2167,240.1573,98.6284,261.4877,2.4807e-05,1.07e-06,0.0,0 STARLINK-3257,1 50203U 21125AZ  24077.73936143  .00000107  00000-0  24807-4 0  9990,2 50203  53.2167 240.1573 0001497  98.6284 261.4877 15.08831837127803,6917.905,95.438,540.806,538.735,0.0
50203.0,STARLINK-3257,PAYLOAD,2024-03-18 11:13:54,15.08837395,0.0001439,53.2167,236.885,105.1317,254.9834,0.0001687,2.398e-05,0.0,0 STARLINK-3257,1 50203U 21125AZ  24078.46799520  .00002398  00000-0  16870-3 0  9991,2 50203  53.2167 236.8850 0001439 105.1317 254.9834 15.08837395124778,6917.888,95.438,540.749,538.758,0.0
50203.0,STARLINK-3257,PAYLOAD,2024-03-19 09:29:19,15.08838096,0.0001295,53.2167,232.7275,94.8693,265.2447,0.0002447,3.608e-05,0.0,0 STARLINK-3257,1 50203U 21125AZ  24079.39535892  .00003608  00000-0  24470-3 0  9994,2 50203  53.2167 232.7275 0001295  94.8693 265.2447 15.08838096128054,6917.886,95.438,540.647,538.855,0.0
50203.0,STARLINK-3257,PAYLOAD,2024-03-20 09:20:06,15.08837153,0.000156,53.2158,228.2702,87.3278,272.7893,1.515e-05,-4.7e-07,0.0,0 STARLINK-3257,1 50203U 21125AZ  24080.38896042 -.00000047  00000-0  15150-4 0  9993,2 50203  53.2158 228.2702 0001560  87.3278 272.7893 15.08837153125069,6917.889,95.438,540.833,538.675,0.0
50203.0,STARLINK-3257,PAYLOAD,2024-03-20 14:06:15,15.08837998,0.0001519,53.2164,227.3798,90.7124,269.4042,-6.2051e-07,-2.98e-06,0.0,0 STARLINK-3257,1 50203U 21125AZ  24080.58767837 -.00000298  00000-0 -62051-6 0  9997,2 50203  53.2164 227.3798 0001519  90.7124 269.4042 15.08837998128231,6917.887,95.438,540.802,538.701,0.0
50203.0,STARLINK-3257,PAYLOAD,2024-03-20 17:17:01,15.08841728,0.0001623,53.2156,226.7842,82.6398,277.4778,0.00010055,1.313e-05,0.0,0 STARLINK-3257,1 50203U 21125AZ  24080.72015823  .00001313  00000-0  10055-3 0  9995,2 50203  53.2156 226.7842 0001623  82.6398 277.4778 15.08841728128257,6917.875,95.437,540.863,538.617,0.0
50203.0,STARLINK-3257,PAYLOAD,2024-03-21 13:57:02,15.08846076,0.0001668,53.2156,222.9198,80.2112,279.9069,0.00026173,3.881e-05,0.0,0 STARLINK-3257,1 50203U 21125AZ  24081.58127898  .00003881  00000-0  26173-3 0  9996,2 50203  53.2156 222.9198 0001668  80.2112 279.9069 15.08846076128381,6917.862,95.437,540.881,538.573,0.0
50203.0,STARLINK-3257,PAYLOAD,2024-03-21 15:32:25,15.08846488,0.0001433,53.2137,222.6218,80.7097,279.4057,0.00031954,4.802e-05,0.0,0 STARLINK-3257,1 50203U 21125AZ  24081.64751883  .00004802  00000-0  31954-3 0  9997,2 50203  53.2137 222.6218 0001433  80.7097 279.4057 15.08846488125259,6917.861,95.437,540.717,538.734,0.0
50203.0,STARLINK-3257,PAYLOAD,2024-03-22 13:47:48,15.08856197,0.0001496,53.2138,218.4585,83.1249,276.9913,0.00039569,6.018e-05,0.0,0 STARLINK-3257,1 50203U 21125AZ  24082.57487183  .00006018  00000-0  39569-3 0  9990,2 50203  53.2138 218.4585 0001496  83.1249 276.9913 15.08856197128530,6917.831,95.437,540.731,538.661,0.0
50203.0,STARLINK-3257,PAYLOAD,2024-03-22 15:23:11,15.08857452,0.00015,53.2141,218.1614,83.5216,276.5947,0.00041542,6.333e-05,0.0,0 STARLINK-3257,1 50203U 21125AZ  24082.64111105  .00006333  00000-0  41542-3 0  9990,2 50203  53.2141 218.1614 0001500  83.5216 276.5947 15.08857452128547,6917.827,95.436,540.73,538.654,0.0
50203.0,STARLINK-3257,PAYLOAD,2024-03-23 13:38:36,15.08836755,0.0001568,53.2143,213.9968,54.0921,306.0216,9.2544e-05,1.185e-05,0.0,0 STARLINK-3257,1 50203U 21125AZ  24083.56847876  .00001185  00000-0  92544-4 0  9992,2 50203  53.2143 213.9968 0001568  54.0921 306.0216 15.08836755125542,6917.89,95.438,540.84,538.671,0.0
50203.0,STARLINK-3257,PAYLOAD,2024-03-23 15:13:59,15.08836554,0.0001551,53.216,213.6992,84.0,276.1169,5.9406e-05,6.57e-06,0.0,0 STARLINK-3257,1 50203U 21125AZ  24083.63471771  .00000657  00000-0  59406-4 0  9990,2 50203  53.2160 213.6992 0001551  84.0000 276.1169 15.08836554128698,6917.891,95.438,540.829,538.683,0.0
50203.0,STARLINK-3257,PAYLOAD,2024-03-24 13:29:23,15.08854419,0.0001433,53.216,209.5354,79.0515,281.0639,0.0004975,7.642e-05,0.0,0 STARLINK-3257,1 50203U 21125AZ  24084.56207516  .00007642  00000-0  49750-3 0  9998,2 50203  53.2160 209.5354 0001433  79.0515 281.0639 15.08854419125692,6917.836,95.437,540.693,538.71,0.0
50203.0,STARLINK-3257,PAYLOAD,2024-03-24 18:15:32,15.08874717,0.0001535,53.2174,208.6367,80.362,279.7546,0.0015244,0.00024079,0.0,0 STARLINK-3257,1 50203U 21125AZ  24084.76079065  .00024079  00000-0  15244-2 0  9999,2 50203  53.2174 208.6367 0001535  80.3620 279.7546 15.08874717125724,6917.774,95.435,540.701,538.577,0.0
50203.0,STARLINK-3257,PAYLOAD,2024-03-25 13:20:10,15.08855759,0.0001583,53.2173,205.0745,59.63,300.4849,0.0010136,0.00015887,0.0,0 STARLINK-3257,1 50203U 21125AZ  24085.55567559  .00015887  00000-0  10136-2 0  9999,2 50203  53.2173 205.0745 0001583  59.6300 300.4849 15.08855759125847,6917.832,95.437,540.792,538.602,0.0
50203.0,STARLINK-3257,PAYLOAD,2024-03-25 14:55:33,15.08874256,0.0001305,53.2161,204.7788,81.6894,278.4246,0.0019262,0.00030529,0.0,0 STARLINK-3257,1 50203U 21125AZ  24085.62191181  .00030529  00000-0  19262-2 0  9990,2 50203  53.2161 204.7788 0001305  81.6894 278.4246 15.08874256125851,6917.776,95.435,540.543,538.738,0.0
